{{Infobox Planet  
| name = 493 Griseldis
| image = 
| caption = 
| discovery=yes | physical_characteristics = yes | bgcolour=#FFFFC0
| discovery_ref = 
| discoverer = [[马克斯·沃夫|马克斯·沃夫]]
| discovery_site = [[海德堡|海德堡]]（[[天文台编号列表|024]]）
| discovered =  1902年9月7日
| mp_name = 493
| alt_names = 1902 JS
| named_after = Geschichte
| mp_category=[[小行星带|主带小行星]]
| orbit_ref = <ref>[http://ssd.jpl.nasa.gov/sbdb.cgi?sstr=493 493 Griseldis (1902 JS)]</ref>
| epoch = 2011年8月27日
| semimajor= 3.120914298649582AU
| perihelion=2.584156713620371AU
| aphelion= 3.657671883678793[[天文单位|AU]]
| eccentricity =0.1719872875911605					
| period =2013.822511501794[[日|地球日]]<br>5.51[[年|地球年]] 
| inclination=15.14855821664952[[角度|°]]
| asc_node=357.4871722926741°
| arg_peri=47.33582882100703°
| mean_anomaly=231.0611825868424°
| avg_speed=
 | dimensions=46.41千米
 | mass=
 | density=
 | surface_grav=
 | escape_velocity=
 | rotation=51.940小时
 | spectral_type= 
 | magnitude=
 | abs_magnitude=10.30
 | albedo=0.0622
 | single_temperature=
}}
'''小行星493'''（'''493 Griseldis'''），是由[[德国|德国]][[天文学家|天文学家]][[马克斯·沃夫|马克斯·沃夫]]于1902年9月7日在德国[[海德堡|海德堡]][[王座山天文台|王座山天文台]]利用照相法发现的[[小行星带|主带]][[小行星|小行星]]。

小行星493以[[意大利|意大利]]作家[[乔万尼·薄伽丘|乔万尼·薄伽丘]]的小说集《[[十日谈|十日谈]]》中Patient Griselda的登场人物Geschichte命名。

== 参考资料 ==
{{Reflist}}

{{Minor Planet Number|(492)[[小行星492|小行星492]]|(494)[[小行星494|小行星494]]}}

[[Category:小行星带天体|Category:小行星带天体]]
[[Category:1902年发现的小行星|Category:1902年发现的小行星]]